0 FENGYUN 1C DEB
1 30730U 99025ASQ 13281.26334556  .00000908  00000-0  50216-3 0  7809
2 30730 099.0112 290.4750 0095307 153.3560 269.7864 14.11617207340268
0 FENGYUN 1C DEB
1 30730U 99025ASQ 13282.96340833  .00000993  00000-0  54704-3 0  7813
2 30730 099.0110 292.1824 0095326 148.6127 269.1659 14.11623563340509
0 FENGYUN 1C DEB
1 30730U 99025ASQ 13284.02749679  .00001161  00000-0  63532-3 0  7821
2 30730 099.0109 293.2510 0095343 145.6437 276.6733 14.11624632340651
0 FENGYUN 1C DEB
1 30730U 99025ASQ 13285.52940286  .00001167  00000-0  63829-3 0  7830
2 30730 099.0106 294.7596 0095386 141.4508 349.1067 14.11626962340865
0 FENGYUN 1C DEB
1 30730U 99025ASQ 13287.00289600  .00001434  00000-0  77906-3 0  7840
2 30730 099.0103 296.2395 0095393 137.3428 277.1582 14.11629687341072
0 FENGYUN 1C DEB
1 30730U 99025ASQ 13288.98735406  .00001463  00000-0  79414-3 0  7857
2 30730 099.0102 298.2321 0095386 131.8290 281.8525 14.11639294341355
0 FENGYUN 1C DEB
1 30730U 99025ASQ 13290.56026802  .00001308  00000-0  71274-3 0  7862
2 30730 099.0102 299.8113 0095405 127.4378 355.2094 14.11645342341573
0 FENGYUN 1C DEB
1 30730U 99025ASQ 13291.96491184  .00001331  00000-0  72443-3 0  7872
2 30730 099.0103 301.2218 0095376 123.5149 293.4739 14.11648400341777
0 FENGYUN 1C DEB
1 30730U 99025ASQ 13293.53761847  .00001530  00000-0  82924-3 0  7880
2 30730 099.0104 302.8010 0095421 119.1217 005.8424 14.11652159341999
0 FENGYUN 1C DEB
1 30730U 99025ASQ 13294.59910213  .00001759  00000-0  94967-3 0  7894
2 30730 099.0105 303.8669 0095419 116.1579 000.2297 14.11654589342140
